NORAD_CAT_ID,OBJECT_NAME,OBJECT_TYPE,EPOCH,MEAN_MOTION,ECCENTRICITY,INCLINATION,RA_OF_ASC_NODE,ARG_OF_PERICENTER,MEAN_ANOMALY,BSTAR,MEAN_MOTION_DOT,MEAN_MOTION_DDOT,TLE_LINE0,TLE_LINE1,TLE_LINE2,SEMIMAJOR_AXIS,PERIOD,APOGEE,PERIGEE,DECAYED
55954.0,STARLINK-5892,PAYLOAD,2024-07-28 17:25:13,14.98337687,0.0002946,70.0004,309.3795,265.806,94.2762,-1.8874e-05,-3.18e-06,0.0,0 STARLINK-5892,1 55954U 23037AS  24210.72585188 -.00000318  00000-0 -18874-4 0  9992,2 55954  70.0004 309.3795 0002946 265.8060  94.2762 14.98337687 76598,6950.169,96.107,574.082,569.987,0.0
55954.0,STARLINK-5892,PAYLOAD,2024-07-29 12:38:50,14.98325527,0.0002868,70.0003,307.3593,264.4074,95.6758,1.0675e-05,3.4e-07,0.0,0 STARLINK-5892,1 55954U 23037AS  24211.52697817  .00000034  00000-0  10675-4 0  9998,2 55954  70.0003 307.3593 0002868 264.4074  95.6758 14.98325527 76718,6950.207,96.107,574.065,570.078,0.0
55954.0,STARLINK-5892,PAYLOAD,2024-07-30 09:28:35,14.98329122,0.000324,69.9993,305.1719,272.921,87.1578,-6.5475e-05,-8.74e-06,0.0,0 STARLINK-5892,1 55954U 23037AS  24212.39485889 -.00000874  00000-0 -65475-4 0  9990,2 55954  69.9993 305.1719 0003240 272.9210  87.1578 14.98329122 76508,6950.196,96.107,574.312,569.809,0.0
55954.0,STARLINK-5892,PAYLOAD,2024-07-30 23:53:47,14.98338117,0.0003102,69.9991,303.6571,274.0222,86.0583,-4.4452e-05,-6.23e-06,0.0,0 STARLINK-5892,1 55954U 23037AS  24212.99569181 -.00000623  00000-0 -44452-4 0  9998,2 55954  69.9991 303.6571 0003102 274.0222  86.0583 14.98338117 76933,6950.168,96.106,574.189,569.877,0.0
55954.0,STARLINK-5892,PAYLOAD,2024-07-31 14:19:00,14.98333204,0.000293,70.0004,302.1415,269.5976,90.4847,0.00013352,1.501e-05,0.0,0 STARLINK-5892,1 55954U 23037AS  24213.59652904  .00001501  00000-0  13352-3 0  9999,2 55954  70.0004 302.1415 0002930 269.5976  90.4847 14.98333204 76681,6950.183,96.107,574.084,570.012,0.0
55954.0,STARLINK-5892,PAYLOAD,2024-07-31 15:55:08,14.98321721,0.0002794,70.0004,301.9732,268.7986,91.2853,0.00036919,4.314e-05,0.0,0 STARLINK-5892,1 55954U 23037AS  24213.66329042  .00004314  00000-0  36919-3 0  9990,2 55954  70.0004 301.9732 0002794 268.7986  91.2853 14.98321721 76698,6950.218,96.108,574.025,570.142,0.0
55954.0,STARLINK-5892,PAYLOAD,2024-08-01 09:32:37,14.98327773,0.0002852,70.0009,300.1231,271.7167,88.3665,2.7744e-06,-6e-07,0.0,0 STARLINK-5892,1 55954U 23037AS  24214.39765494 -.00000060  00000-0  27744-5 0  9999,2 55954  70.0009 300.1231 0002852 271.7167  88.3665 14.98327773 76802,6950.2,96.107,574.047,570.083,0.0
55954.0,STARLINK-5892,PAYLOAD,2024-08-02 12:46:54,14.98328242,0.0002745,70.0012,297.2637,265.5335,94.5511,-0.00010624,-1.36e-05,0.0,0 STARLINK-5892,1 55954U 23037AS  24215.53257713 -.00001360  00000-0 -10624-3 0  9998,2 55954  70.0012 297.2637 0002745 265.5335  94.5511 14.98328242 77319,6950.198,96.107,573.971,570.155,0.0
55954.0,STARLINK-5892,PAYLOAD,2024-08-02 14:23:02,14.98327101,0.0002756,70.0011,297.0951,266.0669,94.0175,-0.00011643,-1.482e-05,0.0,0 STARLINK-5892,1 55954U 23037AS  24215.59933825 -.00001482  00000-0 -11643-3 0  9996,2 55954  70.0011 297.0951 0002756 266.0669  94.0175 14.98327101 76989,6950.202,96.107,573.982,570.151,0.0
55954.0,STARLINK-5892,PAYLOAD,2024-08-02 22:23:43,14.98326889,0.0002767,70.001,296.2531,267.3228,92.7615,-7.3348e-05,-9.68e-06,0.0,0 STARLINK-5892,1 55954U 23037AS  24215.93313781 -.00000968  00000-0 -73348-4 0  9996,2 55954  70.0010 296.2531 0002767 267.3228  92.7615 14.98326889 77033,6950.203,96.107,573.991,570.144,0.0
55954.0,STARLINK-5892,PAYLOAD,2024-08-03 12:48:55,14.98333145,0.0002998,70.0001,294.7363,268.645,91.4366,5.5479e-05,5.69e-06,0.0,0 STARLINK-5892,1 55954U 23037AS  24216.53396995  .00000569  00000-0  55479-4 0  9991,2 55954  70.0001 294.7363 0002998 268.6450  91.4366 14.98333145 77465,6950.183,96.107,574.132,569.965,0.0
55954.0,STARLINK-5892,PAYLOAD,2024-08-03 14:25:02,14.98334491,0.0002983,70.0002,294.568,269.5157,90.5661,6.8856e-05,7.29e-06,0.0,0 STARLINK-5892,1 55954U 23037AS  24216.60072865  .00000729  00000-0  68856-4 0  9997,2 55954  70.0002 294.5680 0002983 269.5157  90.5661 14.98334491 77131,6950.179,96.107,574.117,569.971,0.0
55954.0,STARLINK-5892,PAYLOAD,2024-08-03 22:25:43,14.98327189,0.0002914,70.0003,293.7262,268.9608,91.1217,7.2147e-05,7.68e-06,0.0,0 STARLINK-5892,1 55954U 23037AS  24216.93453206  .00000768  00000-0  72147-4 0  9996,2 55954  70.0003 293.7262 0002914 268.9608  91.1217 14.98327189 77182,6950.202,96.107,574.092,570.041,0.0
55954.0,STARLINK-5892,PAYLOAD,2024-08-04 12:50:56,14.98320262,0.000265,70.001,292.2127,265.2775,94.8081,9.3184e-05,1.019e-05,0.0,0 STARLINK-5892,1 55954U 23037AS  24217.53537865  .00001019  00000-0  93184-4 0  9991,2 55954  70.0010 292.2127 0002650 265.2775  94.8081 14.98320262 77618,6950.223,96.108,573.93,570.246,0.0
55954.0,STARLINK-5892,PAYLOAD,2024-08-04 14:27:04,14.98322248,0.0002612,70.0006,292.0441,263.4319,96.6543,3.73e-05,3.52e-06,0.0,0 STARLINK-5892,1 55954U 23037AS  24217.60213912  .00000352  00000-0  37300-4 0  9990,2 55954  70.0006 292.0441 0002612 263.4319  96.6543 14.98322248 77284,6950.217,96.107,573.897,570.266,0.0
55954.0,STARLINK-5892,PAYLOAD,2024-08-04 22:27:44,14.9832868,0.0003067,69.9996,291.2016,271.3804,88.7003,2.6629e-05,2.25e-06,0.0,0 STARLINK-5892,1 55954U 23037AS  24217.93593498  .00000225  00000-0  26629-4 0  9997,2 55954  69.9996 291.2016 0003067 271.3804  88.7003 14.98328680 77335,6950.197,96.107,574.194,569.93,0.0
55954.0,STARLINK-5892,PAYLOAD,2024-08-05 22:29:46,14.98328398,0.0002875,70.0,288.6758,274.4671,85.6159,-9.1355e-05,-1.183e-05,0.0,0 STARLINK-5892,1 55954U 23037AS  24218.93733876 -.00001183  00000-0 -91355-4 0  9998,2 55954  70.0000 288.6758 0002875 274.4671  85.6159 14.98328398 77489,6950.198,96.107,574.061,570.065,0.0
55954.0,STARLINK-5892,PAYLOAD,2024-08-06 04:54:18,14.98319071,0.0002787,70.0001,288.0024,271.7033,88.3807,1.2028e-05,5.1e-07,0.0,0 STARLINK-5892,1 55954U 23037AS  24219.20438293  .00000051  00000-0  12028-4 0  9995,2 55954  70.0001 288.0024 0002787 271.7033  88.3807 14.98319071 77864,6950.227,96.108,574.029,570.155,0.0
55954.0,STARLINK-5892,PAYLOAD,2024-08-06 14:31:06,14.98326225,0.0002907,69.9996,286.9924,270.1098,89.9728,-2.0384e-05,-3.36e-06,0.0,0 STARLINK-5892,1 55954U 23037AS  24219.60494162 -.00000336  00000-0 -20384-4 0  9998,2 55954  69.9996 286.9924 0002907 270.1098  89.9728 14.98326225 77585,6950.205,96.107,574.09,570.049,0.0
55954.0,STARLINK-5892,PAYLOAD,2024-08-07 03:20:10,14.98333968,0.0002984,69.9996,285.6458,271.983,88.0988,0.00010105,1.113e-05,0.0,0 STARLINK-5892,1 55954U 23037AS  24220.13901254  .00001113  00000-0  10105-3 0  9994,2 55954  69.9996 285.6458 0002984 271.9830  88.0988 14.98333968 78009,6950.181,96.107,574.12,569.972,0.0
55954.0,STARLINK-5892,PAYLOAD,2024-08-07 11:20:50,14.9833979,0.0002751,69.9997,284.804,267.279,92.8054,0.00012998,1.459e-05,0.0,0 STARLINK-5892,1 55954U 23037AS  24220.47280686  .00001459  00000-0  12998-3 0  9995,2 55954  69.9997 284.8040 0002751 267.2790  92.8054 14.98339790 77716,6950.163,96.106,573.94,570.116,0.0
55954.0,STARLINK-5892,PAYLOAD,2024-08-08 12:58:59,14.9835439,0.0002615,69.9995,282.1107,262.4608,97.6254,-0.00033586,-4.1e-05,0.0,0 STARLINK-5892,1 55954U 23037AS  24221.54096566 -.00004100  00000-0 -33586-3 0  9990,2 55954  69.9995 282.1107 0002615 262.4608  97.6254 14.98354390 77878,6950.117,96.105,573.8,570.165,0.0
55954.0,STARLINK-5892,PAYLOAD,2024-08-08 14:35:07,14.98329219,0.0002535,70.0002,281.9432,263.0318,97.0553,8.8563e-05,9.64e-06,0.0,0 STARLINK-5892,1 55954U 23037AS  24221.60773118  .00000964  00000-0  88563-4 0  9990,2 55954  70.0002 281.9432 0002535 263.0318  97.0553 14.98329219 78222,6950.195,96.107,573.822,570.298,0.0
55954.0,STARLINK-5892,PAYLOAD,2024-08-09 13:01:00,14.98335699,0.0002552,70.0002,279.5868,263.8505,96.2363,-7.2863e-05,-9.62e-06,0.0,0 STARLINK-5892,1 55954U 23037AS  24222.54236819 -.00000962  00000-0 -72863-4 0  9992,2 55954  70.0002 279.5868 0002552 263.8505  96.2363 14.98335699 78020,6950.175,96.107,573.814,570.267,0.0
55954.0,STARLINK-5892,PAYLOAD,2024-08-09 14:37:08,14.9833677,0.0002487,70.0002,279.4182,261.089,98.9987,-6.5925e-05,-8.8e-06,0.0,0 STARLINK-5892,1 55954U 23037AS  24222.60912699 -.00000880  00000-0 -65925-4 0  9996,2 55954  70.0002 279.4182 0002487 261.0890  98.9987 14.98336770 78372,6950.172,96.107,573.765,570.308,0.0
55954.0,STARLINK-5892,PAYLOAD,2024-08-10 05:02:21,14.98328509,0.0002647,70.0003,277.9029,261.3558,98.7301,-6.1091e-05,-8.22e-06,0.0,0 STARLINK-5892,1 55954U 23037AS  24223.20997084 -.00000822  00000-0 -61091-4 0  9990,2 55954  70.0003 277.9029 0002647 261.3558  98.7301 14.98328509 78467,6950.198,96.107,573.902,570.223,0.0
55954.0,STARLINK-5892,PAYLOAD,2024-08-10 13:03:01,14.98325651,0.00026,70.0,277.0615,261.3396,98.7468,-3.1833e-05,-4.73e-06,0.0,0 STARLINK-5892,1 55954U 23037AS  24223.54377292 -.00000473  00000-0 -31833-4 0  9993,2 55954  70.0000 277.0615 0002600 261.3396  98.7468 14.98325651 78172,6950.206,96.107,573.878,570.264,0.0
55954.0,STARLINK-5892,PAYLOAD,2024-08-11 09:52:45,14.98338092,0.0003,69.9989,274.872,270.5077,89.5738,8.8077e-05,9.58e-06,0.0,0 STARLINK-5892,1 55954U 23037AS  24224.41164007  .00000958  00000-0  88077-4 0  9996,2 55954  69.9989 274.8720 0003000 270.5077  89.5738 14.98338092 78643,6950.168,96.106,574.118,569.948,0.0
55954.0,STARLINK-5892,PAYLOAD,2024-08-11 21:05:42,14.98337056,0.0003082,69.9988,273.694,268.7087,91.3718,6.3057e-06,-1.8e-07,0.0,0 STARLINK-5892,1 55954U 23037AS  24224.87896004 -.00000018  00000-0  63057-5 0  9995,2 55954  69.9988 273.6940 0003082 268.7087  91.3718 14.98337056 78371,6950.171,96.107,574.178,569.894,0.0
55954.0,STARLINK-5892,PAYLOAD,2024-08-12 05:06:23,14.98326929,0.0002942,69.9987,272.8526,268.732,91.3502,5.1981e-05,5.27e-06,0.0,0 STARLINK-5892,1 55954U 23037AS  24225.21276632  .00000527  00000-0  51981-4 0  9999,2 55954  69.9987 272.8526 0002942 268.7320  91.3502 14.98326929 78766,6950.202,96.107,574.112,570.023,0.0
